STARLINK-36167          
1 67011U 25293J   26003.16667823 -.00115215  00000+0 -18925-2 0  9999
2 67011  69.9997 262.7898 0003143 276.7080 135.8828 15.52590045  3542
STARLINK-36175          
1 67012U 25293K   26003.16667823 -.00128955  00000+0 -21213-2 0  9999
2 67012  69.9997 262.7852 0003343 276.0622 140.3560 15.52599542  3545
STARLINK-35856          
1 67013U 25293L   26003.16667823 -.00118076  00000+0 -19398-2 0  9994
2 67013  69.9998 262.7830 0003512 275.0474 143.2904 15.52594119  3544
STARLINK-36207          
1 67014U 25293M   26003.16667823 -.00111280  00000+0 -18270-2 0  9993
2 67014  69.9998 262.7809 0003387 280.2796 139.9751 15.52587047  3607
STARLINK-36093          
1 67015U 25293N   26003.16667823 -.00117006  00000+0 -19219-2 0  9990
2 67015  69.9998 262.7759 0003297 275.9487 148.1359 15.52596299  3548
STARLINK-36120          
1 67016U 25293P   26003.16667823  .00084076  00000+0  13564-2 0  9996
2 67016  69.9998 262.7785 0003075 275.6580 146.4797 15.52489559  3540
STARLINK-35498          
1 67017U 25293Q   26003.16667823 -.00093560  00000+0 -15327-2 0  9996
2 67017  69.9998 262.7741 0003244 276.4083 149.5977 15.52578013  3737
STARLINK-36106          
1 67018U 25293R   26003.16667823 -.00128752  00000+0 -21178-2 0  9990
2 67018  69.9998 262.7711 0003295 275.4799 152.4384 15.52601067  3656
STARLINK-35688          
1 67019U 25293S   26003.16667823 -.00243612  00000+0 -40605-2 0  9990
2 67019  69.9996 262.7686 0003316 276.3209 153.5203 15.52647587  3734
STARLINK-36172          
1 67020U 25293T   26003.16667823 -.00303544  00000+0 -50927-2 0  9991
2 67020  69.9997 262.7666 0003343 275.4692 156.2896 15.52676362  3653
STARLINK-36184          
1 67021U 25293U   26003.16667823 -.00145407  00000+0 -23961-2 0  9992
2 67021  69.9997 262.7639 0003301 275.5268 158.1398 15.52612858  3656
STARLINK-36209          
1 67022U 25293V   26003.16667823 -.00135863  00000+0 -22364-2 0  9994
2 67022  69.9997 262.7622 0003398 278.2151 157.3695 15.52606832  3652
