CCSDS_OMM_VERS = 2.0
CREATION_DATE  = 
ORIGINATOR     = 

OBJECT_NAME    = STARLINK-36167
OBJECT_ID      = 2025-293J
CENTER_NAME    = EARTH
REF_FRAME      = TEME
TIME_SYSTEM    = UTC
MEAN_ELEMENT_THEORY = SGP/SGP4

EPOCH          = 2026-01-03T04:00:00.999072
MEAN_MOTION    = 15.52590045
ECCENTRICITY   = .0003143
INCLINATION    = 69.9997
RA_OF_ASC_NODE = 262.7898
ARG_OF_PERICENTER = 276.7080
MEAN_ANOMALY   = 135.8828

EPHEMERIS_TYPE = 0
CLASSIFICATION_TYPE = U
NORAD_CAT_ID   = 67011
ELEMENT_SET_NO = 999
REV_AT_EPOCH   = 354
BSTAR          = -.18925E-2
MEAN_MOTION_DOT = -.115215E-2
MEAN_MOTION_DDOT = 0

CCSDS_OMM_VERS = 2.0
CREATION_DATE  = 
ORIGINATOR     = 

OBJECT_NAME    = STARLINK-36175
OBJECT_ID      = 2025-293K
CENTER_NAME    = EARTH
REF_FRAME      = TEME
TIME_SYSTEM    = UTC
MEAN_ELEMENT_THEORY = SGP/SGP4

EPOCH          = 2026-01-03T04:00:00.999072
MEAN_MOTION    = 15.52599542
ECCENTRICITY   = .0003343
INCLINATION    = 69.9997
RA_OF_ASC_NODE = 262.7852
ARG_OF_PERICENTER = 276.0622
MEAN_ANOMALY   = 140.3560

EPHEMERIS_TYPE = 0
CLASSIFICATION_TYPE = U
NORAD_CAT_ID   = 67012
ELEMENT_SET_NO = 999
REV_AT_EPOCH   = 354
BSTAR          = -.21213E-2
MEAN_MOTION_DOT = -.128955E-2
MEAN_MOTION_DDOT = 0

CCSDS_OMM_VERS = 2.0
CREATION_DATE  = 
ORIGINATOR     = 

OBJECT_NAME    = STARLINK-35856
OBJECT_ID      = 2025-293L
CENTER_NAME    = EARTH
REF_FRAME      = TEME
TIME_SYSTEM    = UTC
MEAN_ELEMENT_THEORY = SGP/SGP4

EPOCH          = 2026-01-03T04:00:00.999072
MEAN_MOTION    = 15.52594119
ECCENTRICITY   = .0003512
INCLINATION    = 69.9998
RA_OF_ASC_NODE = 262.7830
ARG_OF_PERICENTER = 275.0474
MEAN_ANOMALY   = 143.2904

EPHEMERIS_TYPE = 0
CLASSIFICATION_TYPE = U
NORAD_CAT_ID   = 67013
ELEMENT_SET_NO = 999
REV_AT_EPOCH   = 354
BSTAR          = -.19398E-2
MEAN_MOTION_DOT = -.118076E-2
MEAN_MOTION_DDOT = 0

CCSDS_OMM_VERS = 2.0
CREATION_DATE  = 
ORIGINATOR     = 

OBJECT_NAME    = STARLINK-36207
OBJECT_ID      = 2025-293M
CENTER_NAME    = EARTH
REF_FRAME      = TEME
TIME_SYSTEM    = UTC
MEAN_ELEMENT_THEORY = SGP/SGP4

EPOCH          = 2026-01-03T04:00:00.999072
MEAN_MOTION    = 15.52587047
ECCENTRICITY   = .0003387
INCLINATION    = 69.9998
RA_OF_ASC_NODE = 262.7809
ARG_OF_PERICENTER = 280.2796
MEAN_ANOMALY   = 139.9751

EPHEMERIS_TYPE = 0
CLASSIFICATION_TYPE = U
NORAD_CAT_ID   = 67014
ELEMENT_SET_NO = 999
REV_AT_EPOCH   = 360
BSTAR          = -.1827E-2
MEAN_MOTION_DOT = -.11128E-2
MEAN_MOTION_DDOT = 0

CCSDS_OMM_VERS = 2.0
CREATION_DATE  = 
ORIGINATOR     = 

OBJECT_NAME    = STARLINK-36093
OBJECT_ID      = 2025-293N
CENTER_NAME    = EARTH
REF_FRAME      = TEME
TIME_SYSTEM    = UTC
MEAN_ELEMENT_THEORY = SGP/SGP4

EPOCH          = 2026-01-03T04:00:00.999072
MEAN_MOTION    = 15.52596299
ECCENTRICITY   = .0003297
INCLINATION    = 69.9998
RA_OF_ASC_NODE = 262.7759
ARG_OF_PERICENTER = 275.9487
MEAN_ANOMALY   = 148.1359

EPHEMERIS_TYPE = 0
CLASSIFICATION_TYPE = U
NORAD_CAT_ID   = 67015
ELEMENT_SET_NO = 999
REV_AT_EPOCH   = 354
BSTAR          = -.19219E-2
MEAN_MOTION_DOT = -.117006E-2
MEAN_MOTION_DDOT = 0

CCSDS_OMM_VERS = 2.0
CREATION_DATE  = 
ORIGINATOR     = 

OBJECT_NAME    = STARLINK-36120
OBJECT_ID      = 2025-293P
CENTER_NAME    = EARTH
REF_FRAME      = TEME
TIME_SYSTEM    = UTC
MEAN_ELEMENT_THEORY = SGP/SGP4

EPOCH          = 2026-01-03T04:00:00.999072
MEAN_MOTION    = 15.52489559
ECCENTRICITY   = .0003075
INCLINATION    = 69.9998
RA_OF_ASC_NODE = 262.7785
ARG_OF_PERICENTER = 275.6580
MEAN_ANOMALY   = 146.4797

EPHEMERIS_TYPE = 0
CLASSIFICATION_TYPE = U
NORAD_CAT_ID   = 67016
ELEMENT_SET_NO = 999
REV_AT_EPOCH   = 354
BSTAR          = .13564E-2
MEAN_MOTION_DOT = .84076E-3
MEAN_MOTION_DDOT = 0

CCSDS_OMM_VERS = 2.0
CREATION_DATE  = 
ORIGINATOR     = 

OBJECT_NAME    = STARLINK-35498
OBJECT_ID      = 2025-293Q
CENTER_NAME    = EARTH
REF_FRAME      = TEME
TIME_SYSTEM    = UTC
MEAN_ELEMENT_THEORY = SGP/SGP4

EPOCH          = 2026-01-03T04:00:00.999072
MEAN_MOTION    = 15.52578013
ECCENTRICITY   = .0003244
INCLINATION    = 69.9998
RA_OF_ASC_NODE = 262.7741
ARG_OF_PERICENTER = 276.4083
MEAN_ANOMALY   = 149.5977

EPHEMERIS_TYPE = 0
CLASSIFICATION_TYPE = U
NORAD_CAT_ID   = 67017
ELEMENT_SET_NO = 999
REV_AT_EPOCH   = 373
BSTAR          = -.15327E-2
MEAN_MOTION_DOT = -.9356E-3
MEAN_MOTION_DDOT = 0

CCSDS_OMM_VERS = 2.0
CREATION_DATE  = 
ORIGINATOR     = 

OBJECT_NAME    = STARLINK-36106
OBJECT_ID      = 2025-293R
CENTER_NAME    = EARTH
REF_FRAME      = TEME
TIME_SYSTEM    = UTC
MEAN_ELEMENT_THEORY = SGP/SGP4

EPOCH          = 2026-01-03T04:00:00.999072
MEAN_MOTION    = 15.52601067
ECCENTRICITY   = .0003295
INCLINATION    = 69.9998
RA_OF_ASC_NODE = 262.7711
ARG_OF_PERICENTER = 275.4799
MEAN_ANOMALY   = 152.4384

EPHEMERIS_TYPE = 0
CLASSIFICATION_TYPE = U
NORAD_CAT_ID   = 67018
ELEMENT_SET_NO = 999
REV_AT_EPOCH   = 365
BSTAR          = -.21178E-2
MEAN_MOTION_DOT = -.128752E-2
MEAN_MOTION_DDOT = 0

CCSDS_OMM_VERS = 2.0
CREATION_DATE  = 
ORIGINATOR     = 

OBJECT_NAME    = STARLINK-35688
OBJECT_ID      = 2025-293S
CENTER_NAME    = EARTH
REF_FRAME      = TEME
TIME_SYSTEM    = UTC
MEAN_ELEMENT_THEORY = SGP/SGP4

EPOCH          = 2026-01-03T04:00:00.999072
MEAN_MOTION    = 15.52647587
ECCENTRICITY   = .0003316
INCLINATION    = 69.9996
RA_OF_ASC_NODE = 262.7686
ARG_OF_PERICENTER = 276.3209
MEAN_ANOMALY   = 153.5203

EPHEMERIS_TYPE = 0
CLASSIFICATION_TYPE = U
NORAD_CAT_ID   = 67019
ELEMENT_SET_NO = 999
REV_AT_EPOCH   = 373
BSTAR          = -.40605E-2
MEAN_MOTION_DOT = -.243612E-2
MEAN_MOTION_DDOT = 0

CCSDS_OMM_VERS = 2.0
CREATION_DATE  = 
ORIGINATOR     = 

OBJECT_NAME    = STARLINK-36172
OBJECT_ID      = 2025-293T
CENTER_NAME    = EARTH
REF_FRAME      = TEME
TIME_SYSTEM    = UTC
MEAN_ELEMENT_THEORY = SGP/SGP4

EPOCH          = 2026-01-03T04:00:00.999072
MEAN_MOTION    = 15.52676362
ECCENTRICITY   = .0003343
INCLINATION    = 69.9997
RA_OF_ASC_NODE = 262.7666
ARG_OF_PERICENTER = 275.4692
MEAN_ANOMALY   = 156.2896

EPHEMERIS_TYPE = 0
CLASSIFICATION_TYPE = U
NORAD_CAT_ID   = 67020
ELEMENT_SET_NO = 999
REV_AT_EPOCH   = 365
BSTAR          = -.50927E-2
MEAN_MOTION_DOT = -.303544E-2
MEAN_MOTION_DDOT = 0

CCSDS_OMM_VERS = 2.0
CREATION_DATE  = 
ORIGINATOR     = 

OBJECT_NAME    = STARLINK-36184
OBJECT_ID      = 2025-293U
CENTER_NAME    = EARTH
REF_FRAME      = TEME
TIME_SYSTEM    = UTC
MEAN_ELEMENT_THEORY = SGP/SGP4

EPOCH          = 2026-01-03T04:00:00.999072
MEAN_MOTION    = 15.52612858
ECCENTRICITY   = .0003301
INCLINATION    = 69.9997
RA_OF_ASC_NODE = 262.7639
ARG_OF_PERICENTER = 275.5268
MEAN_ANOMALY   = 158.1398

EPHEMERIS_TYPE = 0
CLASSIFICATION_TYPE = U
NORAD_CAT_ID   = 67021
ELEMENT_SET_NO = 999
REV_AT_EPOCH   = 365
BSTAR          = -.23961E-2
MEAN_MOTION_DOT = -.145407E-2
MEAN_MOTION_DDOT = 0

CCSDS_OMM_VERS = 2.0
CREATION_DATE  = 
ORIGINATOR     = 

OBJECT_NAME    = STARLINK-36209
OBJECT_ID      = 2025-293V
CENTER_NAME    = EARTH
REF_FRAME      = TEME
TIME_SYSTEM    = UTC
MEAN_ELEMENT_THEORY = SGP/SGP4

EPOCH          = 2026-01-03T04:00:00.999072
MEAN_MOTION    = 15.52606832
ECCENTRICITY   = .0003398
INCLINATION    = 69.9997
RA_OF_ASC_NODE = 262.7622
ARG_OF_PERICENTER = 278.2151
MEAN_ANOMALY   = 157.3695

EPHEMERIS_TYPE = 0
CLASSIFICATION_TYPE = U
NORAD_CAT_ID   = 67022
ELEMENT_SET_NO = 999
REV_AT_EPOCH   = 365
BSTAR          = -.22364E-2
MEAN_MOTION_DOT = -.135863E-2
MEAN_MOTION_DDOT = 0

